OBJECT_NAME,OBJECT_ID,EPOCH,MEAN_MOTION,ECCENTRICITY,INCLINATION,RA_OF_ASC_NODE,ARG_OF_PERICENTER,MEAN_ANOMALY,EPHEMERIS_TYPE,CLASSIFICATION_TYPE,NORAD_CAT_ID,ELEMENT_SET_NO,REV_AT_EPOCH,BSTAR,MEAN_MOTION_DOT,MEAN_MOTION_DDOT
HODOYOSHI-4,2014-033B,2026-07-18T20:06:37.458720,14.88191927,.0022927,97.5460,23.1348,197.2251,162.8191,0,U,40011,999,65351,.21126E-4,.143E-5,0
DEIMOS-2,2014-033D,2026-07-18T20:49:33.993120,14.93801912,.000135,97.5780,73.2375,107.6880,252.4488,0,U,40013,999,64245,.10253E-3,.1033E-4,0
HODOYOSHI-3,2014-033F,2026-07-18T17:03:22.072032,14.85441145,.0031379,97.6450,1.4888,249.7907,109.9933,0,U,40015,999,65230,.5987E-4,.467E-5,0
SPOT 7,2014-034A,2026-07-18T19:45:26.489664,14.60982644,.0001628,98.0608,261.4974,94.7059,265.4328,0,U,40053,999,64175,.44225E-4,.171E-5,0
SKYSAT-B,2014-037D,2026-07-18T19:06:27.506016,14.88096601,.0005858,98.3856,160.5681,161.7870,198.3555,0,U,40072,999,65066,.68368E-4,.567E-5,0
WORLDVIEW-3 (WV-3),2014-048A,2026-07-18T20:03:15.295680,14.85067225,.0001573,97.8554,274.2301,150.4903,209.6401,0,U,40115,999,64660,.46686E-4,.345E-5,0
GAOFEN-2,2014-049A,2026-07-18T20:45:56.113920,14.80928836,.0008465,98.0090,264.0398,124.5253,235.6759,0,U,40118,999,64392,.24041E-4,.133E-5,0
YAOGAN-21,2014-053A,2026-07-18T21:18:01.951776,15.26787173,.0007318,97.1455,238.7683,355.3969,4.7202,0,U,40143,999,65979,.11523E-3,.2966E-4,0
YAOGAN-22,2014-063A,2026-07-18T08:47:55.299264,13.15531673,.00068969,100.7766,351.1630,118.5201,241.6605,0,U,40275,999,56391,.62612519E-4,-.23E-6,0
ASNARO,2014-070A,2026-07-18T19:58:21.446688,15.19405370,.0004689,97.3432,275.0954,78.5533,281.6229,0,U,40298,999,64881,.12302E-3,.2538E-4,0
YAOGAN-24,2014-072A,2026-07-18T20:57:38.327328,14.76120758,.0014869,98.1534,337.4818,158.0401,202.1449,0,U,40310,999,62839,.5932E-4,.357E-5,0
CBERS 4,2014-079A,2026-07-18T21:22:54.541920,14.35516449,.0000643,98.3510,255.7250,59.6839,300.4411,0,U,40336,999,60850,.57444E-5,-.26E-6,0
YAOGAN-26,2014-088A,2026-07-18T20:57:25.122816,15.48535535,.0001284,97.0656,199.3680,313.6313,46.4832,0,U,40362,999,64260,.19052E-3,.10055E-3,0
SMAP,2015-003A,2026-07-18T19:20:58.330752,14.63390735,.0001623,98.1285,206.4542,93.5805,266.5583,0,U,40376,999,61224,.39875E-4,.159E-5,0
KOMPSAT-3A,2015-014A,2026-07-18T21:45:27.583200,15.55579376,.0055778,97.6901,193.6280,62.5494,298.1416,0,U,40536,999,62674,.30212E-3,.22102E-3,0
SENTINEL-2A,2015-028A,2026-07-18T19:45:15.496128,14.30815215,.0001305,98.5673,274.2241,95.7199,264.4132,0,U,40697,999,57825,.57613E-4,.107E-5,0
GAOFEN-8,2015-030A,2026-07-18T20:34:09.600384,15.47036693,.0009899,97.6896,35.1531,84.2764,275.9613,0,U,40701,999,61634,.31635E-3,.15933E-3,0
CARBONITE 1 (CBNT-1),2015-032D,2026-07-18T19:31:30.794304,14.83674251,.0014164,97.6524,16.5593,184.7200,175.3884,0,U,40718,999,59403,.93118E-4,.719E-5,0
YAOGAN-27,2015-040A,2026-07-18T21:09:01.511136,13.16069990,.0008667,100.1174,184.8913,137.2341,222.9449,0,U,40878,999,52183,-.92726E-3,-.395E-5,0
GAOFEN-9 01,2015-047A,2026-07-18T20:15:13.981248,14.82938750,.0028203,97.6263,234.0988,38.9966,321.3275,0,U,40894,999,58488,.54717E-4,.396E-5,0
YAOGAN-28,2015-064A,2026-07-18T19:55:13.196640,15.27786323,.0012002,97.3117,337.4619,81.9088,278.3512,0,U,41026,999,59551,.12914E-3,.3438E-4,0
YAOGAN-29,2015-069A,2026-07-18T21:18:03.831840,14.83105913,.0000409,98.0015,228.5686,359.9129,0.2084,0,U,41038,999,57532,-.29723E-4,-.296E-5,0
KENT RIDGE 1,2015-077B,2026-07-18T17:25:00.918048,15.23294374,.0008263,14.9807,31.4027,324.6648,35.3126,0,U,41167,999,58591,.60393E-4,.2236E-4,0
GAOFEN-4,2015-083A,2026-07-18T17:24:23.161248,1.00270986,.0004243,0.4372,83.8070,125.0645,94.4453,0,U,41194,999,3884,0,-.341E-5,0
JASON-3,2016-002A,2026-07-18T20:20:16.591200,12.87628845,.0008149,66.0416,59.2735,270.6018,89.4067,0,U,41240,999,49132,.11079E-3,-.34E-6,0
SENTINEL-3A,2016-011A,2026-07-18T20:16:58.507104,14.26740408,.0001323,98.6234,266.7716,89.1412,270.9920,0,U,41335,999,54257,.34479E-4,.4E-6,0
ZIYUAN 3-02 (ZY 3-02),2016-033A,2026-07-18T21:25:28.422048,15.21454758,.0014464,97.3822,275.0577,172.1334,188.0132,0,U,41556,999,56280,.12118E-3,.266E-4,0
CARTOSAT-2C,2016-040A,2026-07-18T19:22:13.314720,15.19278517,.0009318,97.4462,259.3470,34.1348,326.0484,0,U,41599,999,55851,.74653E-4,.1508E-4,0
SKYSAT-C1,2016-040C,2026-07-18T19:13:28.576416,15.36783549,.0000422,96.9549,229.8149,211.1018,149.0202,0,U,41601,999,56272,.13746E-3,.4865E-4,0
LAPAN-A3,2016-040E,2026-07-18T20:16:29.450784,15.33290417,.0008275,97.1507,194.9570,259.9954,100.0355,0,U,41603,999,55966,.51204E-4,.1573E-4,0
GAOFEN-3,2016-049A,2026-07-18T20:37:03.691200,14.42218498,.0001761,98.4016,207.1676,83.8125,276.3266,0,U,41727,999,52321,-.22376E-4,-.117E-5,0
